{"type": "FeatureCollection", "metadata": {"scan_id": 2, "scanned_at": "2026-08-25T13:49:04.293781+00:00", "grid": "7x7@5.0mi", "business": "Tulsa Surgical Arts", "keywords": ["plastic surgeon tulsa", "breast augmentation tulsa", "facelift tulsa"], "honesty": "Values exist ONLY at measured points. Any surface between points is interpolation for legibility, not measurement."}, "features": [{"type": "Feature", "geometry": {"type": "Point", "coordinates": [-95.9733641882121, 36.10126579218995]}, "properties": {"kind": "grid", "row": 0, "col": 0, "zcta": null, "ranks": {"breast augmentation tulsa": {"rank": null, "state": "absent", "competitor": "TBS Collective Wellness", "listings": 1}, "facelift tulsa": {"rank": null, "state": "absent", "competitor": "Soul Aesthetics", "listings": 14}, "plastic surgeon tulsa": {"rank": null, "state": "absent", "competitor": "Midtown Surgical and Skin Institute, PLLC", "listings": 13}}, "best": null, "avg": null, "top3": 0, "measured": 0}}, {"type": "Feature", "geometry": {"type": "Point", "coordinates": [-95.94350945880807, 36.10126579218995]}, "properties": {"kind": "grid", "row": 0, "col": 1, "zcta": null, "ranks": {"breast augmentation tulsa": {"rank": null, "state": "absent", "competitor": "Sono Bello Tulsa", "listings": 2}, "facelift tulsa": {"rank": null, "state": "absent", "competitor": "Ageless Spa Center", "listings": 20}, "plastic surgeon tulsa": {"rank": null, "state": "absent", "competitor": "Sono Bello Tulsa", "listings": 15}}, "best": null, "avg": null, "top3": 0, "measured": 0}}, {"type": "Feature", "geometry": {"type": "Point", "coordinates": [-95.91365472940403, 36.10126579218995]}, "properties": {"kind": "grid", "row": 0, "col": 2, "zcta": null, "ranks": {"breast augmentation tulsa": {"rank": null, "state": "absent", "competitor": "Sono Bello Tulsa", "listings": 1}, "facelift tulsa": {"rank": null, "state": "absent", "competitor": "Sono Bello Tulsa", "listings": 15}, "plastic surgeon tulsa": {"rank": null, "state": "absent", "competitor": "Sono Bello Tulsa", "listings": 15}}, "best": null, "avg": null, "top3": 0, "measured": 0}}, {"type": "Feature", "geometry": {"type": "Point", "coordinates": [-95.8838, 36.10126579218995]}, "properties": {"kind": "grid", "row": 0, "col": 3, "zcta": null, "ranks": {"breast augmentation tulsa": {"rank": null, "state": "absent", "competitor": "Sono Bello Tulsa", "listings": 1}, "facelift tulsa": {"rank": null, "state": "absent", "competitor": "Sono Bello Tulsa", "listings": 8}, "plastic surgeon tulsa": {"rank": null, "state": "absent", "competitor": "Sono Bello Tulsa", "listings": 5}}, "best": null, "avg": null, "top3": 0, "measured": 0}}, {"type": "Feature", "geometry": {"type": "Point", "coordinates": [-95.85394527059596, 36.10126579218995]}, "properties": {"kind": "grid", "row": 0, "col": 4, "zcta": null, "ranks": {"breast augmentation tulsa": {"rank": null, "state": "absent", "competitor": "Sono Bello Tulsa", "listings": 1}, "facelift tulsa": {"rank": null, "state": "absent", "competitor": "Sono Bello Tulsa", "listings": 9}, "plastic surgeon tulsa": {"rank": null, "state": "absent", "competitor": "Sono Bello Tulsa", "listings": 6}}, "best": null, "avg": null, "top3": 0, "measured": 0}}, {"type": "Feature", "geometry": {"type": "Point", "coordinates": [-95.82409054119192, 36.10126579218995]}, "properties": {"kind": "grid", "row": 0, "col": 5, "zcta": null, "ranks": {"breast augmentation tulsa": {"rank": null, "state": "no_data", "competitor": null, "listings": 0}, "facelift tulsa": {"rank": null, "state": "absent", "competitor": "Union Pines Surgery Center", "listings": 8}, "plastic surgeon tulsa": {"rank": null, "state": "absent", "competitor": "Union Pines Surgery Center", "listings": 5}}, "best": null, "avg": null, "top3": 0, "measured": 0}}, {"type": "Feature", "geometry": {"type": "Point", "coordinates": [-95.79423581178789, 36.10126579218995]}, "properties": {"kind": "grid", "row": 0, "col": 6, "zcta": null, "ranks": {"breast augmentation tulsa": {"rank": null, "state": "no_data", "competitor": null, "listings": 0}, "facelift tulsa": {"rank": null, "state": "absent", "competitor": "Balance Med Spa", "listings": 4}, "plastic surgeon tulsa": {"rank": null, "state": "absent", "competitor": "Dr. Janelle Pavlis M.D. MS", "listings": 2}}, "best": null, "avg": null, "top3": 0, "measured": 0}}, {"type": "Feature", "geometry": {"type": "Point", "coordinates": [-95.973336706775, 36.077143861459966]}, "properties": {"kind": "grid", "row": 1, "col": 0, "zcta": null, "ranks": {"breast augmentation tulsa": {"rank": null, "state": "absent", "competitor": "Dr. Stephen M. Paulsen, MD", "listings": 6}, "facelift tulsa": {"rank": null, "state": "absent", "competitor": "Dr. Stephen M. Paulsen, MD", "listings": 20}, "plastic surgeon tulsa": {"rank": null, "state": "absent", "competitor": "Dr. Stephen M. Paulsen, MD", "listings": 14}}, "best": null, "avg": null, "top3": 0, "measured": 0}}, {"type": "Feature", "geometry": {"type": "Point", "coordinates": [-95.94349113785, 36.077143861459966]}, "properties": {"kind": "grid", "row": 1, "col": 1, "zcta": null, "ranks": {"breast augmentation tulsa": {"rank": null, "state": "absent", "competitor": "Sono Bello Tulsa", "listings": 7}, "facelift tulsa": {"rank": null, "state": "absent", "competitor": "Dr. Stephen M. Paulsen, MD", "listings": 20}, "plastic surgeon tulsa": {"rank": null, "state": "absent", "competitor": "Sono Bello Tulsa", "listings": 12}}, "best": null, "avg": null, "top3": 0, "measured": 0}}, {"type": "Feature", "geometry": {"type": "Point", "coordinates": [-95.91364556892499, 36.077143861459966]}, "properties": {"kind": "grid", "row": 1, "col": 2, "zcta": null, "ranks": {"breast augmentation tulsa": {"rank": null, "state": "absent", "competitor": "Sono Bello Tulsa", "listings": 12}, "facelift tulsa": {"rank": null, "state": "absent", "competitor": "Dr. Stephen M. Paulsen, MD", "listings": 20}, "plastic surgeon tulsa": {"rank": null, "state": "absent", "competitor": "Sono Bello Tulsa", "listings": 20}}, "best": null, "avg": null, "top3": 0, "measured": 0}}, {"type": "Feature", "geometry": {"type": "Point", "coordinates": [-95.8838, 36.077143861459966]}, "properties": {"kind": "grid", "row": 1, "col": 3, "zcta": null, "ranks": {"breast augmentation tulsa": {"rank": null, "state": "absent", "competitor": "Sono Bello Tulsa", "listings": 8}, "facelift tulsa": {"rank": null, "state": "absent", "competitor": "Sono Bello Tulsa", "listings": 16}, "plastic surgeon tulsa": {"rank": null, "state": "absent", "competitor": "Sono Bello Tulsa", "listings": 13}}, "best": null, "avg": null, "top3": 0, "measured": 0}}, {"type": "Feature", "geometry": {"type": "Point", "coordinates": [-95.853954431075, 36.077143861459966]}, "properties": {"kind": "grid", "row": 1, "col": 4, "zcta": null, "ranks": {"breast augmentation tulsa": {"rank": null, "state": "absent", "competitor": "Sono Bello Tulsa", "listings": 6}, "facelift tulsa": {"rank": null, "state": "absent", "competitor": "The Spa at Kreitzberg Plastic Surgery", "listings": 11}, "plastic surgeon tulsa": {"rank": null, "state": "absent", "competitor": "Sono Bello Tulsa", "listings": 6}}, "best": null, "avg": null, "top3": 0, "measured": 0}}, {"type": "Feature", "geometry": {"type": "Point", "coordinates": [-95.82410886214998, 36.077143861459966]}, "properties": {"kind": "grid", "row": 1, "col": 5, "zcta": null, "ranks": {"breast augmentation tulsa": {"rank": null, "state": "no_data", "competitor": null, "listings": 0}, "facelift tulsa": {"rank": null, "state": "absent", "competitor": "Union Pines Surgery Center", "listings": 5}, "plastic surgeon tulsa": {"rank": null, "state": "absent", "competitor": "Union Pines Surgery Center", "listings": 5}}, "best": null, "avg": null, "top3": 0, "measured": 0}}, {"type": "Feature", "geometry": {"type": "Point", "coordinates": [-95.79426329322499, 36.077143861459966]}, "properties": {"kind": "grid", "row": 1, "col": 6, "zcta": null, "ranks": {"breast augmentation tulsa": {"rank": null, "state": "no_data", "competitor": null, "listings": 0}, "facelift tulsa": {"rank": null, "state": "absent", "competitor": "Balance Med Spa", "listings": 2}, "plastic surgeon tulsa": {"rank": null, "state": "absent", "competitor": "Dr. Janelle Pavlis M.D. MS", "listings": 2}}, "best": null, "avg": null, "top3": 0, "measured": 0}}, {"type": "Feature", "geometry": {"type": "Point", "coordinates": [-95.97330925805764, 36.05302193072998]}, "properties": {"kind": "grid", "row": 2, "col": 0, "zcta": null, "ranks": {"breast augmentation tulsa": {"rank": null, "state": "absent", "competitor": "Tulsa Oklahoma Plastic Surgery: Kevin Paul Kunkel, MD", "listings": 11}, "facelift tulsa": {"rank": null, "state": "absent", "competitor": "Tulsa Oklahoma Plastic Surgery: Kevin Paul Kunkel, MD", "listings": 20}, "plastic surgeon tulsa": {"rank": null, "state": "absent", "competitor": "Tulsa Oklahoma Plastic Surgery: Kevin Paul Kunkel, MD", "listings": 20}}, "best": null, "avg": null, "top3": 0, "measured": 0}}, {"type": "Feature", "geometry": {"type": "Point", "coordinates": [-95.94347283870509, 36.05302193072998]}, "properties": {"kind": "grid", "row": 2, "col": 1, "zcta": null, "ranks": {"breast augmentation tulsa": {"rank": 3, "state": "match", "competitor": "Tulsa Oklahoma Plastic Surgery: Kevin Paul Kunkel, MD", "listings": 14}, "facelift tulsa": {"rank": 3, "state": "match", "competitor": "Tulsa Oklahoma Plastic Surgery: Kevin Paul Kunkel, MD", "listings": 20}, "plastic surgeon tulsa": {"rank": 3, "state": "match", "competitor": "Tulsa Oklahoma Plastic Surgery: Kevin Paul Kunkel, MD", "listings": 20}}, "best": 3, "avg": 3.0, "top3": 3, "measured": 3}}, {"type": "Feature", "geometry": {"type": "Point", "coordinates": [-95.91363641935254, 36.05302193072998]}, "properties": {"kind": "grid", "row": 2, "col": 2, "zcta": null, "ranks": {"breast augmentation tulsa": {"rank": 2, "state": "match", "competitor": "Whitlock Cosmetic Center of Oklahoma", "listings": 16}, "facelift tulsa": {"rank": 2, "state": "match", "competitor": "Whitlock Cosmetic Center of Oklahoma", "listings": 20}, "plastic surgeon tulsa": {"rank": 1, "state": "match", "competitor": "Whitlock Cosmetic Center of Oklahoma", "listings": 20}}, "best": 1, "avg": 1.67, "top3": 3, "measured": 3}}, {"type": "Feature", "geometry": {"type": "Point", "coordinates": [-95.8838, 36.05302193072998]}, "properties": {"kind": "grid", "row": 2, "col": 3, "zcta": null, "ranks": {"breast augmentation tulsa": {"rank": 1, "state": "match", "competitor": "Sono Bello Tulsa", "listings": 11}, "facelift tulsa": {"rank": 1, "state": "match", "competitor": "The Spa at Kreitzberg Plastic Surgery", "listings": 20}, "plastic surgeon tulsa": {"rank": 1, "state": "match", "competitor": "Sono Bello Tulsa", "listings": 15}}, "best": 1, "avg": 1.0, "top3": 3, "measured": 3}}, {"type": "Feature", "geometry": {"type": "Point", "coordinates": [-95.85396358064745, 36.05302193072998]}, "properties": {"kind": "grid", "row": 2, "col": 4, "zcta": null, "ranks": {"breast augmentation tulsa": {"rank": null, "state": "absent", "competitor": "The Spa at Kreitzberg Plastic Surgery", "listings": 6}, "facelift tulsa": {"rank": null, "state": "absent", "competitor": "The Spa at Kreitzberg Plastic Surgery", "listings": 15}, "plastic surgeon tulsa": {"rank": null, "state": "absent", "competitor": "Kreitzberg Plastic Surgery", "listings": 6}}, "best": null, "avg": null, "top3": 0, "measured": 0}}, {"type": "Feature", "geometry": {"type": "Point", "coordinates": [-95.8241271612949, 36.05302193072998]}, "properties": {"kind": "grid", "row": 2, "col": 5, "zcta": null, "ranks": {"breast augmentation tulsa": {"rank": null, "state": "no_data", "competitor": null, "listings": 0}, "facelift tulsa": {"rank": null, "state": "absent", "competitor": "Rule of Thirds, LLC", "listings": 5}, "plastic surgeon tulsa": {"rank": null, "state": "absent", "competitor": "Dr. Janelle Pavlis M.D. MS", "listings": 2}}, "best": null, "avg": null, "top3": 0, "measured": 0}}, {"type": "Feature", "geometry": {"type": "Point", "coordinates": [-95.79429074194235, 36.05302193072998]}, "properties": {"kind": "grid", "row": 2, "col": 6, "zcta": null, "ranks": {"breast augmentation tulsa": {"rank": null, "state": "no_data", "competitor": null, "listings": 0}, "facelift tulsa": {"rank": null, "state": "absent", "competitor": "Balance Med Spa", "listings": 3}, "plastic surgeon tulsa": {"rank": null, "state": "absent", "competitor": "Dr. Janelle Pavlis M.D. MS", "listings": 2}}, "best": null, "avg": null, "top3": 0, "measured": 0}}, {"type": "Feature", "geometry": {"type": "Point", "coordinates": [-95.97328184202023, 36.0289]}, "properties": {"kind": "grid", "row": 3, "col": 0, "zcta": null, "ranks": {"breast augmentation tulsa": {"rank": null, "state": "absent", "competitor": "Tulsa Oklahoma Plastic Surgery: Kevin Paul Kunkel, MD", "listings": 9}, "facelift tulsa": {"rank": null, "state": "absent", "competitor": "Tulsa Oklahoma Plastic Surgery: Kevin Paul Kunkel, MD", "listings": 18}, "plastic surgeon tulsa": {"rank": null, "state": "absent", "competitor": "Tulsa Oklahoma Plastic Surgery: Kevin Paul Kunkel, MD", "listings": 9}}, "best": null, "avg": null, "top3": 0, "measured": 0}}, {"type": "Feature", "geometry": {"type": "Point", "coordinates": [-95.94345456134681, 36.0289]}, "properties": {"kind": "grid", "row": 3, "col": 1, "zcta": null, "ranks": {"breast augmentation tulsa": {"rank": 3, "state": "match", "competitor": "Tulsa Oklahoma Plastic Surgery: Kevin Paul Kunkel, MD", "listings": 10}, "facelift tulsa": {"rank": 3, "state": "match", "competitor": "Tulsa Oklahoma Plastic Surgery: Kevin Paul Kunkel, MD", "listings": 18}, "plastic surgeon tulsa": {"rank": 3, "state": "match", "competitor": "Tulsa Oklahoma Plastic Surgery: Kevin Paul Kunkel, MD", "listings": 13}}, "best": 3, "avg": 3.0, "top3": 3, "measured": 3}}, {"type": "Feature", "geometry": {"type": "Point", "coordinates": [-95.91362728067341, 36.0289]}, "properties": {"kind": "grid", "row": 3, "col": 2, "zcta": null, "ranks": {"breast augmentation tulsa": {"rank": 2, "state": "match", "competitor": "Whitlock Cosmetic Center of Oklahoma", "listings": 12}, "facelift tulsa": {"rank": 2, "state": "match", "competitor": "Whitlock Cosmetic Center of Oklahoma", "listings": 20}, "plastic surgeon tulsa": {"rank": 1, "state": "match", "competitor": "Whitlock Cosmetic Center of Oklahoma", "listings": 12}}, "best": 1, "avg": 1.67, "top3": 3, "measured": 3}}, {"type": "Feature", "geometry": {"type": "Point", "coordinates": [-95.8838, 36.0289]}, "properties": {"kind": "grid", "row": 3, "col": 3, "zcta": null, "ranks": {"breast augmentation tulsa": {"rank": 1, "state": "match", "competitor": "Whitlock Cosmetic Center of Oklahoma", "listings": 9}, "facelift tulsa": {"rank": 1, "state": "match", "competitor": "Whitlock Cosmetic Center of Oklahoma", "listings": 17}, "plastic surgeon tulsa": {"rank": 1, "state": "match", "competitor": "Whitlock Cosmetic Center of Oklahoma", "listings": 11}}, "best": 1, "avg": 1.0, "top3": 3, "measured": 3}}, {"type": "Feature", "geometry": {"type": "Point", "coordinates": [-95.85397271932658, 36.0289]}, "properties": {"kind": "grid", "row": 3, "col": 4, "zcta": null, "ranks": {"breast augmentation tulsa": {"rank": null, "state": "absent", "competitor": "The Spa at Kreitzberg Plastic Surgery", "listings": 5}, "facelift tulsa": {"rank": null, "state": "absent", "competitor": "The Spa at Kreitzberg Plastic Surgery", "listings": 11}, "plastic surgeon tulsa": {"rank": null, "state": "absent", "competitor": "Kreitzberg Plastic Surgery", "listings": 9}}, "best": null, "avg": null, "top3": 0, "measured": 0}}, {"type": "Feature", "geometry": {"type": "Point", "coordinates": [-95.82414543865318, 36.0289]}, "properties": {"kind": "grid", "row": 3, "col": 5, "zcta": null, "ranks": {"breast augmentation tulsa": {"rank": null, "state": "no_data", "competitor": null, "listings": 0}, "facelift tulsa": {"rank": null, "state": "absent", "competitor": "Rule of Thirds, LLC", "listings": 4}, "plastic surgeon tulsa": {"rank": null, "state": "absent", "competitor": "Ranilo Legaspi Vasquez, MD", "listings": 3}}, "best": null, "avg": null, "top3": 0, "measured": 0}}, {"type": "Feature", "geometry": {"type": "Point", "coordinates": [-95.79431815797976, 36.0289]}, "properties": {"kind": "grid", "row": 3, "col": 6, "zcta": null, "ranks": {"breast augmentation tulsa": {"rank": null, "state": "no_data", "competitor": null, "listings": 0}, "facelift tulsa": {"rank": null, "state": "absent", "competitor": "Action Guttering", "listings": 1}, "plastic surgeon tulsa": {"rank": null, "state": "absent", "competitor": "Ranilo Legaspi Vasquez, MD", "listings": 1}}, "best": null, "avg": null, "top3": 0, "measured": 0}}, {"type": "Feature", "geometry": {"type": "Point", "coordinates": [-95.973254458623, 36.00477806927002]}, "properties": {"kind": "grid", "row": 4, "col": 0, "zcta": null, "ranks": {"breast augmentation tulsa": {"rank": null, "state": "absent", "competitor": "Whitlock Cosmetic Center of Oklahoma", "listings": 8}, "facelift tulsa": {"rank": null, "state": "absent", "competitor": "Whitlock Cosmetic Center of Oklahoma", "listings": 15}, "plastic surgeon tulsa": {"rank": null, "state": "absent", "competitor": "South Tulsa Plastic Surgery: Dr. Brenda Schiesel, D.O.", "listings": 8}}, "best": null, "avg": null, "top3": 0, "measured": 0}}, {"type": "Feature", "geometry": {"type": "Point", "coordinates": [-95.94343630574866, 36.00477806927002]}, "properties": {"kind": "grid", "row": 4, "col": 1, "zcta": null, "ranks": {"breast augmentation tulsa": {"rank": 2, "state": "match", "competitor": "Whitlock Cosmetic Center of Oklahoma", "listings": 9}, "facelift tulsa": {"rank": 2, "state": "match", "competitor": "Whitlock Cosmetic Center of Oklahoma", "listings": 16}, "plastic surgeon tulsa": {"rank": 2, "state": "match", "competitor": "Whitlock Cosmetic Center of Oklahoma", "listings": 9}}, "best": 2, "avg": 2.0, "top3": 3, "measured": 3}}, {"type": "Feature", "geometry": {"type": "Point", "coordinates": [-95.91361815287434, 36.00477806927002]}, "properties": {"kind": "grid", "row": 4, "col": 2, "zcta": null, "ranks": {"breast augmentation tulsa": {"rank": 2, "state": "match", "competitor": "Whitlock Cosmetic Center of Oklahoma", "listings": 9}, "facelift tulsa": {"rank": 1, "state": "match", "competitor": "Whitlock Cosmetic Center of Oklahoma", "listings": 17}, "plastic surgeon tulsa": {"rank": 1, "state": "match", "competitor": "Whitlock Cosmetic Center of Oklahoma", "listings": 9}}, "best": 1, "avg": 1.33, "top3": 3, "measured": 3}}, {"type": "Feature", "geometry": {"type": "Point", "coordinates": [-95.8838, 36.00477806927002]}, "properties": {"kind": "grid", "row": 4, "col": 3, "zcta": null, "ranks": {"breast augmentation tulsa": {"rank": 1, "state": "match", "competitor": "Whitlock Cosmetic Center of Oklahoma", "listings": 4}, "facelift tulsa": {"rank": 1, "state": "match", "competitor": "Whitlock Cosmetic Center of Oklahoma", "listings": 10}, "plastic surgeon tulsa": {"rank": 1, "state": "match", "competitor": "Whitlock Cosmetic Center of Oklahoma", "listings": 5}}, "best": 1, "avg": 1.0, "top3": 3, "measured": 3}}, {"type": "Feature", "geometry": {"type": "Point", "coordinates": [-95.85398184712565, 36.00477806927002]}, "properties": {"kind": "grid", "row": 4, "col": 4, "zcta": null, "ranks": {"breast augmentation tulsa": {"rank": null, "state": "no_data", "competitor": null, "listings": 0}, "facelift tulsa": {"rank": null, "state": "absent", "competitor": "Chase Nelson, D.O.", "listings": 13}, "plastic surgeon tulsa": {"rank": null, "state": "absent", "competitor": "Chase Nelson, D.O.", "listings": 8}}, "best": null, "avg": null, "top3": 0, "measured": 0}}, {"type": "Feature", "geometry": {"type": "Point", "coordinates": [-95.82416369425133, 36.00477806927002]}, "properties": {"kind": "grid", "row": 4, "col": 5, "zcta": null, "ranks": {"breast augmentation tulsa": {"rank": null, "state": "no_data", "competitor": null, "listings": 0}, "facelift tulsa": {"rank": null, "state": "absent", "competitor": "Saint Francis Hospital South", "listings": 1}, "plastic surgeon tulsa": {"rank": null, "state": "absent", "competitor": "Ranilo Legaspi Vasquez, MD", "listings": 3}}, "best": null, "avg": null, "top3": 0, "measured": 0}}, {"type": "Feature", "geometry": {"type": "Point", "coordinates": [-95.79434554137698, 36.00477806927002]}, "properties": {"kind": "grid", "row": 4, "col": 6, "zcta": null, "ranks": {"breast augmentation tulsa": {"rank": null, "state": "no_data", "competitor": null, "listings": 0}, "facelift tulsa": {"rank": null, "state": "absent", "competitor": "Action Guttering", "listings": 1}, "plastic surgeon tulsa": {"rank": null, "state": "absent", "competitor": "Ranilo Legaspi Vasquez, MD", "listings": 1}}, "best": null, "avg": null, "top3": 0, "measured": 0}}, {"type": "Feature", "geometry": {"type": "Point", "coordinates": [-95.97322710782633, 35.980656138540034]}, "properties": {"kind": "grid", "row": 5, "col": 0, "zcta": null, "ranks": {"breast augmentation tulsa": {"rank": null, "state": "absent", "competitor": "Green Country Surgical Arts", "listings": 2}, "facelift tulsa": {"rank": null, "state": "absent", "competitor": "Dr. John Tedesco", "listings": 3}, "plastic surgeon tulsa": {"rank": null, "state": "absent", "competitor": "Dr. John Tedesco", "listings": 2}}, "best": null, "avg": null, "top3": 0, "measured": 0}}, {"type": "Feature", "geometry": {"type": "Point", "coordinates": [-95.94341807188422, 35.980656138540034]}, "properties": {"kind": "grid", "row": 5, "col": 1, "zcta": null, "ranks": {"breast augmentation tulsa": {"rank": null, "state": "absent", "competitor": "Green Country Surgical Arts", "listings": 2}, "facelift tulsa": {"rank": null, "state": "absent", "competitor": "Dr. John Tedesco", "listings": 3}, "plastic surgeon tulsa": {"rank": null, "state": "absent", "competitor": "Dr. John Tedesco", "listings": 2}}, "best": null, "avg": null, "top3": 0, "measured": 0}}, {"type": "Feature", "geometry": {"type": "Point", "coordinates": [-95.9136090359421, 35.980656138540034]}, "properties": {"kind": "grid", "row": 5, "col": 2, "zcta": null, "ranks": {"breast augmentation tulsa": {"rank": null, "state": "absent", "competitor": "Dr. John Tedesco", "listings": 2}, "facelift tulsa": {"rank": null, "state": "absent", "competitor": "Dr. John Tedesco", "listings": 3}, "plastic surgeon tulsa": {"rank": null, "state": "absent", "competitor": "Dr. John Tedesco", "listings": 2}}, "best": null, "avg": null, "top3": 0, "measured": 0}}, {"type": "Feature", "geometry": {"type": "Point", "coordinates": [-95.8838, 35.980656138540034]}, "properties": {"kind": "grid", "row": 5, "col": 3, "zcta": null, "ranks": {"breast augmentation tulsa": {"rank": null, "state": "absent", "competitor": "Green Country Surgical Arts", "listings": 2}, "facelift tulsa": {"rank": null, "state": "absent", "competitor": "Dr. John Tedesco", "listings": 3}, "plastic surgeon tulsa": {"rank": null, "state": "absent", "competitor": "Dr. John Tedesco", "listings": 2}}, "best": null, "avg": null, "top3": 0, "measured": 0}}, {"type": "Feature", "geometry": {"type": "Point", "coordinates": [-95.85399096405789, 35.980656138540034]}, "properties": {"kind": "grid", "row": 5, "col": 4, "zcta": null, "ranks": {"breast augmentation tulsa": {"rank": null, "state": "no_data", "competitor": null, "listings": 0}, "facelift tulsa": {"rank": null, "state": "absent", "competitor": "JC handyman & Home renovations", "listings": 4}, "plastic surgeon tulsa": {"rank": null, "state": "no_data", "competitor": null, "listings": 0}}, "best": null, "avg": null, "top3": 0, "measured": 0}}, {"type": "Feature", "geometry": {"type": "Point", "coordinates": [-95.82418192811576, 35.980656138540034]}, "properties": {"kind": "grid", "row": 5, "col": 5, "zcta": null, "ranks": {"breast augmentation tulsa": {"rank": null, "state": "no_data", "competitor": null, "listings": 0}, "facelift tulsa": {"rank": null, "state": "no_data", "competitor": null, "listings": 0}, "plastic surgeon tulsa": {"rank": null, "state": "no_data", "competitor": null, "listings": 0}}, "best": null, "avg": null, "top3": 0, "measured": 0}}, {"type": "Feature", "geometry": {"type": "Point", "coordinates": [-95.79437289217366, 35.980656138540034]}, "properties": {"kind": "grid", "row": 5, "col": 6, "zcta": null, "ranks": {"breast augmentation tulsa": {"rank": null, "state": "no_data", "competitor": null, "listings": 0}, "facelift tulsa": {"rank": null, "state": "no_data", "competitor": null, "listings": 0}, "plastic surgeon tulsa": {"rank": null, "state": "no_data", "competitor": null, "listings": 0}}, "best": null, "avg": null, "top3": 0, "measured": 0}}, {"type": "Feature", "geometry": {"type": "Point", "coordinates": [-95.97319978959062, 35.95653420781005]}, "properties": {"kind": "grid", "row": 6, "col": 0, "zcta": null, "ranks": {"breast augmentation tulsa": {"rank": null, "state": "no_data", "competitor": null, "listings": 0}, "facelift tulsa": {"rank": null, "state": "absent", "competitor": "Saint Francis Glenpool", "listings": 1}, "plastic surgeon tulsa": {"rank": null, "state": "absent", "competitor": "Saint Francis Glenpool", "listings": 1}}, "best": null, "avg": null, "top3": 0, "measured": 0}}, {"type": "Feature", "geometry": {"type": "Point", "coordinates": [-95.94339985972708, 35.95653420781005]}, "properties": {"kind": "grid", "row": 6, "col": 1, "zcta": null, "ranks": {"breast augmentation tulsa": {"rank": null, "state": "no_data", "competitor": null, "listings": 0}, "facelift tulsa": {"rank": null, "state": "no_data", "competitor": null, "listings": 0}, "plastic surgeon tulsa": {"rank": null, "state": "no_data", "competitor": null, "listings": 0}}, "best": null, "avg": null, "top3": 0, "measured": 0}}, {"type": "Feature", "geometry": {"type": "Point", "coordinates": [-95.91359992986354, 35.95653420781005]}, "properties": {"kind": "grid", "row": 6, "col": 2, "zcta": null, "ranks": {"breast augmentation tulsa": {"rank": null, "state": "no_data", "competitor": null, "listings": 0}, "facelift tulsa": {"rank": null, "state": "no_data", "competitor": null, "listings": 0}, "plastic surgeon tulsa": {"rank": null, "state": "no_data", "competitor": null, "listings": 0}}, "best": null, "avg": null, "top3": 0, "measured": 0}}, {"type": "Feature", "geometry": {"type": "Point", "coordinates": [-95.8838, 35.95653420781005]}, "properties": {"kind": "grid", "row": 6, "col": 3, "zcta": null, "ranks": {"breast augmentation tulsa": {"rank": null, "state": "no_data", "competitor": null, "listings": 0}, "facelift tulsa": {"rank": null, "state": "no_data", "competitor": null, "listings": 0}, "plastic surgeon tulsa": {"rank": null, "state": "no_data", "competitor": null, "listings": 0}}, "best": null, "avg": null, "top3": 0, "measured": 0}}, {"type": "Feature", "geometry": {"type": "Point", "coordinates": [-95.85400007013645, 35.95653420781005]}, "properties": {"kind": "grid", "row": 6, "col": 4, "zcta": null, "ranks": {"breast augmentation tulsa": {"rank": null, "state": "no_data", "competitor": null, "listings": 0}, "facelift tulsa": {"rank": null, "state": "no_data", "competitor": null, "listings": 0}, "plastic surgeon tulsa": {"rank": null, "state": "no_data", "competitor": null, "listings": 0}}, "best": null, "avg": null, "top3": 0, "measured": 0}}, {"type": "Feature", "geometry": {"type": "Point", "coordinates": [-95.82420014027291, 35.95653420781005]}, "properties": {"kind": "grid", "row": 6, "col": 5, "zcta": null, "ranks": {"breast augmentation tulsa": {"rank": null, "state": "no_data", "competitor": null, "listings": 0}, "facelift tulsa": {"rank": null, "state": "no_data", "competitor": null, "listings": 0}, "plastic surgeon tulsa": {"rank": null, "state": "no_data", "competitor": null, "listings": 0}}, "best": null, "avg": null, "top3": 0, "measured": 0}}, {"type": "Feature", "geometry": {"type": "Point", "coordinates": [-95.79440021040936, 35.95653420781005]}, "properties": {"kind": "grid", "row": 6, "col": 6, "zcta": null, "ranks": {"breast augmentation tulsa": {"rank": null, "state": "no_data", "competitor": null, "listings": 0}, "facelift tulsa": {"rank": null, "state": "no_data", "competitor": null, "listings": 0}, "plastic surgeon tulsa": {"rank": null, "state": "no_data", "competitor": null, "listings": 0}}, "best": null, "avg": null, "top3": 0, "measured": 0}}]}